start=new Date('2023-05-02T00:00:00.000Z').valueOf();
sats=[{"REV_AT_EPOCH":"575","RCS_SIZE":"LARGE","DECAY_DATE":null,"ARG_OF_PERICENTER":"269.2223","BSTAR":"-0.01438000000000","MEAN_MOTION":"15.56311251","REF_FRAME":"TEME","COUNTRY_CODE":"US","MEAN_MOTION_DDOT":"0.0000000000000","OBJECT_NAME":"STARLINK-4774","MEAN_ELEMENT_THEORY":"SGP4","ELEMENT_SET_NO":"999","TLE_LINE2":"2 56138  43.0003  64.4301 0001417 269.2223 153.7908 15.56311251  5752","LAUNCH_DATE":"2023-03-29","SITE":"AFETR","TIME_SYSTEM":"UTC","EPHEMERIS_TYPE":"0","FILE":"3898491","OBJECT_ID":"2023-046AY","SEMIMAJOR_AXIS":"6776.481","MEAN_MOTION_DOT":"-0.00940862","INCLINATION":"43.0003","TLE_LINE1":"1 56138U 23046AY  23122.00002315 -.00940862  00000-0 -14380-1 0  9997","RA_OF_ASC_NODE":"64.4301","PERIOD":"92.526","CLASSIFICATION_TYPE":"U","ECCENTRICITY":"0.00014170","GP_ID":"231030110","CENTER_NAME":"EARTH","PERIAPSIS":"397.385","MEAN_ANOMALY":"153.7908","OBJECT_TYPE":"PAYLOAD","NORAD_CAT_ID":"56138","APOAPSIS":"399.306","EPOCH":"2023-05-02T00:00:02.000160"},{"REV_AT_EPOCH":"130","BSTAR":"-0.01412500000000","DECAY_DATE":null,"RCS_SIZE":"LARGE","ARG_OF_PERICENTER":"263.1248","REF_FRAME":"TEME","MEAN_MOTION":"15.56476601","MEAN_MOTION_DDOT":"0.0000000000000","COUNTRY_CODE":"US","MEAN_ELEMENT_THEORY":"SGP4","OBJECT_NAME":"STARLINK-5378","TLE_LINE2":"2 56139  43.0004  64.9165 0001433 263.1248  54.8289 15.56476601  1306","ELEMENT_SET_NO":"999","TIME_SYSTEM":"UTC","SITE":"AFETR","LAUNCH_DATE":"2023-03-29","EPHEMERIS_TYPE":"0","INCLINATION":"43.0004","FILE":"3898518","SEMIMAJOR_AXIS":"6776.001","MEAN_MOTION_DOT":"-0.00930943","OBJECT_ID":"2023-046AZ","TLE_LINE1":"1 56139U 23046AZ  23121.91667824 -.00930943  00000-0 -14125-1 0  9995","PERIOD":"92.517","RA_OF_ASC_NODE":"64.9165","CLASSIFICATION_TYPE":"U","CENTER_NAME":"EARTH","GP_ID":"231057270","ECCENTRICITY":"0.00014330","MEAN_ANOMALY":"54.8289","OBJECT_TYPE":"PAYLOAD","NORAD_CAT_ID":"56139","PERIAPSIS":"396.895","EPOCH":"2023-05-01T22:00:00.999936","APOAPSIS":"398.837"},{"CENTER_NAME":"EARTH","GP_ID":"231057296","ECCENTRICITY":"0.00014550","CLASSIFICATION_TYPE":"U","EPOCH":"2023-05-01T22:00:00.999936","APOAPSIS":"398.844","NORAD_CAT_ID":"56140","OBJECT_TYPE":"PAYLOAD","MEAN_ANOMALY":"58.3121","PERIAPSIS":"396.872","INCLINATION":"43.0002","FILE":"3898518","SEMIMAJOR_AXIS":"6775.993","OBJECT_ID":"2023-046BA","MEAN_MOTION_DOT":"-0.00931094","EPHEMERIS_TYPE":"0","PERIOD":"92.516","RA_OF_ASC_NODE":"64.9193","TLE_LINE1":"1 56140U 23046BA  23121.91667824 -.00931094  00000-0 -14126-1 0  9996","MEAN_ELEMENT_THEORY":"SGP4","OBJECT_NAME":"STARLINK-5375","TIME_SYSTEM":"UTC","SITE":"AFETR","LAUNCH_DATE":"2023-03-29","TLE_LINE2":"2 56140  43.0002  64.9193 0001455 257.9215  58.3121 15.56479281  1307","ELEMENT_SET_NO":"999","ARG_OF_PERICENTER":"257.9215","DECAY_DATE":null,"RCS_SIZE":"LARGE","BSTAR":"-0.01412600000000","REV_AT_EPOCH":"130","MEAN_MOTION_DDOT":"0.0000000000000","COUNTRY_CODE":"US","REF_FRAME":"TEME","MEAN_MOTION":"15.56479281"},{"OBJECT_NAME":"STARLINK-5377","MEAN_ELEMENT_THEORY":"SGP4","TIME_SYSTEM":"UTC","SITE":"AFETR","LAUNCH_DATE":"2023-03-29","TLE_LINE2":"2 56141  43.0004  64.9112 0001438 260.2609  59.9719 15.56493169  1307","ELEMENT_SET_NO":"999","BSTAR":"-0.01407100000000","DECAY_DATE":null,"RCS_SIZE":"LARGE","ARG_OF_PERICENTER":"260.2609","REV_AT_EPOCH":"130","MEAN_MOTION_DDOT":"0.0000000000000","COUNTRY_CODE":"US","MEAN_MOTION":"15.56493169","REF_FRAME":"TEME","CENTER_NAME":"EARTH","ECCENTRICITY":"0.00014380","GP_ID":"231057440","CLASSIFICATION_TYPE":"U","EPOCH":"2023-05-01T22:00:00.999936","APOAPSIS":"398.792","PERIAPSIS":"396.843","OBJECT_TYPE":"PAYLOAD","NORAD_CAT_ID":"56141","MEAN_ANOMALY":"59.9719","INCLINATION":"43.0004","SEMIMAJOR_AXIS":"6775.953","FILE":"3898518","OBJECT_ID":"2023-046BB","MEAN_MOTION_DOT":"-0.00928237","EPHEMERIS_TYPE":"0","PERIOD":"92.516","RA_OF_ASC_NODE":"64.9112","TLE_LINE1":"1 56141U 23046BB  23121.91667824 -.00928237  00000-0 -14071-1 0  9991"},{"ECCENTRICITY":"0.00014520","GP_ID":"231057261","CENTER_NAME":"EARTH","CLASSIFICATION_TYPE":"U","APOAPSIS":"398.867","EPOCH":"2023-05-01T22:00:00.999936","PERIAPSIS":"396.899","MEAN_ANOMALY":"58.1769","OBJECT_TYPE":"PAYLOAD","NORAD_CAT_ID":"56142","FILE":"3898518","SEMIMAJOR_AXIS":"6776.018","OBJECT_ID":"2023-046BC","MEAN_MOTION_DOT":"-0.00930881","INCLINATION":"43.0002","EPHEMERIS_TYPE":"0","RA_OF_ASC_NODE":"64.9163","PERIOD":"92.517","TLE_LINE1":"1 56142U 23046BC  23121.91667824 -.00930881  00000-0 -14127-1 0  9992","OBJECT_NAME":"STARLINK-5376","MEAN_ELEMENT_THEORY":"SGP4","SITE":"AFETR","LAUNCH_DATE":"2023-03-29","TIME_SYSTEM":"UTC","ELEMENT_SET_NO":"999","TLE_LINE2":"2 56142  43.0002  64.9163 0001452 259.0168  58.1769 15.56470707  1303","DECAY_DATE":null,"RCS_SIZE":"LARGE","BSTAR":"-0.01412700000000","ARG_OF_PERICENTER":"259.0168","REV_AT_EPOCH":"130","COUNTRY_CODE":"US","MEAN_MOTION_DDOT":"0.0000000000000","MEAN_MOTION":"15.56470707","REF_FRAME":"TEME"},{"COUNTRY_CODE":"US","MEAN_MOTION_DDOT":"0.0000000000000","REF_FRAME":"TEME","MEAN_MOTION":"15.56506766","BSTAR":"-0.01410800000000","DECAY_DATE":null,"RCS_SIZE":"LARGE","ARG_OF_PERICENTER":"260.5117","REV_AT_EPOCH":"130","SITE":"AFETR","LAUNCH_DATE":"2023-03-29","TIME_SYSTEM":"UTC","ELEMENT_SET_NO":"999","TLE_LINE2":"2 56143  43.0004  64.9068 0001455 260.5117  61.2409 15.56506766  1305","MEAN_ELEMENT_THEORY":"SGP4","OBJECT_NAME":"STARLINK-5016","RA_OF_ASC_NODE":"64.9068","PERIOD":"92.515","TLE_LINE1":"1 56143U 23046BD  23121.91667824 -.00930888  00000-0 -14108-1 0  9999","MEAN_MOTION_DOT":"-0.00930888","FILE":"3898518","SEMIMAJOR_AXIS":"6775.913","OBJECT_ID":"2023-046BD","INCLINATION":"43.0004","EPHEMERIS_TYPE":"0","APOAPSIS":"398.764","EPOCH":"2023-05-01T22:00:00.999936","OBJECT_TYPE":"PAYLOAD","NORAD_CAT_ID":"56143","MEAN_ANOMALY":"61.2409","PERIAPSIS":"396.792","GP_ID":"231057373","ECCENTRICITY":"0.00014550","CENTER_NAME":"EARTH","CLASSIFICATION_TYPE":"U"},{"CLASSIFICATION_TYPE":"U","CENTER_NAME":"EARTH","GP_ID":"231057399","ECCENTRICITY":"0.00014650","NORAD_CAT_ID":"56144","OBJECT_TYPE":"PAYLOAD","MEAN_ANOMALY":"59.2076","PERIAPSIS":"396.863","EPOCH":"2023-05-01T22:00:00.999936","APOAPSIS":"398.848","EPHEMERIS_TYPE":"0","INCLINATION":"43.0001","FILE":"3898518","SEMIMAJOR_AXIS":"6775.990","OBJECT_ID":"2023-046BE","MEAN_MOTION_DOT":"-0.00926696","TLE_LINE1":"1 56144U 23046BE  23121.91667824 -.00926696  00000-0 -14052-1 0  9990","PERIOD":"92.516","RA_OF_ASC_NODE":"64.9077","MEAN_ELEMENT_THEORY":"SGP4","OBJECT_NAME":"STARLINK-5374","TLE_LINE2":"2 56144  43.0001  64.9077 0001465 259.5062  59.2076 15.56480209  1301","ELEMENT_SET_NO":"999","TIME_SYSTEM":"UTC","LAUNCH_DATE":"2023-03-29","SITE":"AFETR","REV_AT_EPOCH":"130","DECAY_DATE":null,"BSTAR":"-0.01405200000000","RCS_SIZE":"LARGE","ARG_OF_PERICENTER":"259.5062","REF_FRAME":"TEME","MEAN_MOTION":"15.56480209","MEAN_MOTION_DDOT":"0.0000000000000","COUNTRY_CODE":"US"},{"REV_AT_EPOCH":"506","DECAY_DATE":null,"RCS_SIZE":"LARGE","ARG_OF_PERICENTER":"271.0945","BSTAR":"-0.00003823000000","REF_FRAME":"TEME","MEAN_MOTION":"15.71338495","COUNTRY_CODE":"US","MEAN_MOTION_DDOT":"0.0000000000000","MEAN_ELEMENT_THEORY":"SGP4","OBJECT_NAME":"STARLINK-5370","ELEMENT_SET_NO":"999","TLE_LINE2":"2 56145  42.9993  69.9460 0001490 271.0945  88.9752 15.71338495  5061","LAUNCH_DATE":"2023-03-29","SITE":"AFETR","TIME_SYSTEM":"UTC","EPHEMERIS_TYPE":"0","FILE":"3898258","MEAN_MOTION_DOT":"-0.00005458","SEMIMAJOR_AXIS":"6733.208","OBJECT_ID":"2023-046BF","INCLINATION":"42.9993","TLE_LINE1":"1 56145U 23046BF  23120.99733641 -.00005458  00000-0 -38230-4 0  9990","RA_OF_ASC_NODE":"69.9460","PERIOD":"91.642","CLASSIFICATION_TYPE":"U","GP_ID":"231024612","ECCENTRICITY":"0.00014900","CENTER_NAME":"EARTH","OBJECT_TYPE":"PAYLOAD","NORAD_CAT_ID":"56145","MEAN_ANOMALY":"88.9752","PERIAPSIS":"354.069","APOAPSIS":"356.076","EPOCH":"2023-04-30T23:56:09.865824"},{"TLE_LINE1":"1 56146U 23046BG  23121.91667824 -.00926602  00000-0 -14041-1 0  9997","PERIOD":"92.515","RA_OF_ASC_NODE":"64.9079","EPHEMERIS_TYPE":"0","INCLINATION":"43.0004","FILE":"3898518","MEAN_MOTION_DOT":"-0.00926602","SEMIMAJOR_AXIS":"6775.938","OBJECT_ID":"2023-046BG","PERIAPSIS":"396.819","NORAD_CAT_ID":"56146","OBJECT_TYPE":"PAYLOAD","MEAN_ANOMALY":"60.6450","EPOCH":"2023-05-01T22:00:00.999936","APOAPSIS":"398.788","CLASSIFICATION_TYPE":"U","CENTER_NAME":"EARTH","ECCENTRICITY":"0.00014530","GP_ID":"231057364","MEAN_MOTION":"15.56498180","REF_FRAME":"TEME","MEAN_MOTION_DDOT":"0.0000000000000","COUNTRY_CODE":"US","REV_AT_EPOCH":"130","ARG_OF_PERICENTER":"260.3486","DECAY_DATE":null,"RCS_SIZE":"LARGE","BSTAR":"-0.01404100000000","TLE_LINE2":"2 56146  43.0004  64.9079 0001453 260.3486  60.6450 15.56498180  1304","ELEMENT_SET_NO":"999","TIME_SYSTEM":"UTC","LAUNCH_DATE":"2023-03-29","SITE":"AFETR","OBJECT_NAME":"STARLINK-5111","MEAN_ELEMENT_THEORY":"SGP4"},{"MEAN_ELEMENT_THEORY":"SGP4","OBJECT_NAME":"STARLINK-5140","TIME_SYSTEM":"UTC","SITE":"AFETR","LAUNCH_DATE":"2023-03-29","TLE_LINE2":"2 56147  43.0009  68.4076 0001358 253.9225 106.1493 15.71353642  5104","ELEMENT_SET_NO":"999","DECAY_DATE":null,"RCS_SIZE":"LARGE","ARG_OF_PERICENTER":"253.9225","BSTAR":"0.00002348100000","REV_AT_EPOCH":"510","MEAN_MOTION_DDOT":"0.0000000000000","COUNTRY_CODE":"US","REF_FRAME":"TEME","MEAN_MOTION":"15.71353642","CENTER_NAME":"EARTH","GP_ID":"231024536","ECCENTRICITY":"0.00013580","CLASSIFICATION_TYPE":"U","EPOCH":"2023-05-01T06:01:58.270368","APOAPSIS":"355.944","OBJECT_TYPE":"PAYLOAD","MEAN_ANOMALY":"106.1493","NORAD_CAT_ID":"56147","PERIAPSIS":"354.115","INCLINATION":"43.0009","FILE":"3898258","SEMIMAJOR_AXIS":"6733.164","OBJECT_ID":"2023-046BH","MEAN_MOTION_DOT":"0.00002628","EPHEMERIS_TYPE":"0","PERIOD":"91.641","RA_OF_ASC_NODE":"68.4076","TLE_LINE1":"1 56147U 23046BH  23121.25136887  .00002628  00000-0  23481-4 0  9997"}];
